,Name,District,Address,Price ($) p/m,Size (m2),Price per m2,Link,Longitude,Latitude
0,Old Birdcage Walk,D28,Old Birdcage Walk,2800,720,3.89,https://www.99.co/singapore/commercial/rent/property/old-birdcage-walk-office-BsmNsBgcq2bJnqjgd2fMJB#enquiry_source--Search,103.87024,1.40991
1,Woods Square,D25,Woodlands Square,3088,560,5.51,https://www.99.co/singapore/commercial/rent/property/woods-square-office-jq32wLXEH2A2LEijgcZFhW#enquiry_source--Search,103.78569,1.43601
6,Mountbatten Square,D14,Mountbatten Rd,6538,1453,4.5,https://www.99.co/singapore/commercial/rent/property/mountbatten-square-office-oYFqLpbKt6mDRZbMMHAHLL#enquiry_source--Search,103.88345,1.30468
7,Vision Exchange,D22,Venture Dr,7769,1689,4.6,https://www.99.co/singapore/commercial/rent/property/vision-exchange-office-JGCiuRjyMnZ5DWNugztChC#enquiry_source--Search,103.74461,1.32989
8,Plus,D1,Cecil St,8646,786,11.0,https://www.99.co/singapore/commercial/rent/property/plus-office-YYSJ7KAagHFYbJSvFeKWsN#enquiry_source--Search,103.84836,1.27945
9,ABI Plaza,D2,Keppel Rd,11885,1251,9.5,https://www.99.co/singapore/commercial/rent/property/abi-plaza-office-S9nVX8id5vkiSiP7QRe2zy#enquiry_source--Search,103.84262,1.27186
12,Republic Plaza,D1,Raffles Pl,165000,15000,11.0,https://www.99.co/singapore/commercial/rent/property/republic-plaza-office-ecjg23YWYjadG873Umus52#enquiry_source--Search,103.8508,1.2849
32,Midview City,D20,Sin Ming Lane,1350,230,5.87,https://www.99.co/singapore/commercial/rent/property/midview-city-office-hqnCq7FmbxBVVZCftqPb6H#enquiry_source--Search,103.83386,1.35759
34,Orchard Towers,D9,Orchard Rd,1600,355,4.51,https://www.99.co/singapore/commercial/rent/property/orchard-towers-office-LkBj4voLo4pvKxZmKx7GoW#enquiry_source--Search,103.83214,1.30374
35,Eunos Techpark,D14,Kaki Bt Pl,7000,2000,3.5,https://www.99.co/singapore/commercial/rent/property/eunos-techpark-office-cWVXKdBQEpVMAHt4ystHhF#enquiry_source--Search,103.90222,1.33185
36,Spazio @ Kovan,D19,Upp Serangoon Rd,2500,409,6.11,https://www.99.co/singapore/commercial/rent/property/spazio-kovan-office-anC2V5Zb5VSkPANrVSuRs#enquiry_source--Search,103.85217,1.30548
37,GR.ID,D7,Selegie Rd,128000,15000,8.53,https://www.99.co/singapore/commercial/rent/property/grid-office-YXSAZsAcKuCyFy4iUU6Rdm#enquiry_source--Search,103.84925,1.30054
38,Suntec City Towers,D1,Temasek Boulevard,31050,2960,10.49,https://www.99.co/singapore/commercial/rent/property/suntec-city-towers-office-oRDUpq6GJgYHpqM9sJZxZp#enquiry_source--Search,103.85854,1.29345
40,Tong Eng Building,D1,Cecil St,6380,1227,5.2,https://www.99.co/singapore/commercial/rent/property/tong-eng-building-office-sironeS8sMt6jvuK2opMai#enquiry_source--Search,103.84836,1.27945
41,The Adelphi,D6,Coleman St,2200,300,7.33,https://www.99.co/singapore/commercial/rent/property/the-adelphi-office-axRktwwRgF5JA4CWkbHAkG#enquiry_source--Search,103.85198,1.29109
42,Peninsula Plaza,D6,Nth Bridge Rd,9412,1776,5.3,https://www.99.co/singapore/commercial/rent/property/peninsula-plaza-office-dUWV2EEbPzQmAX5VHsonvJ#enquiry_source--Search,103.84465,1.42327
44,The Heeren,D9,Orchard Rd,9000,732,12.3,https://www.99.co/singapore/commercial/rent/property/the-heeren-office-ZgAqBdQkbYEmuvELX24AZw#enquiry_source--Search,103.84812,1.29765
47,Six Battery Road,D1,Battery Rd,156000,12000,13.0,https://www.99.co/singapore/commercial/rent/property/six-battery-road-office-3HGfqmfsTcTToPnZEhf5U9#enquiry_source--Search,103.85309,1.28511
65,The Central,D1,Eu Tong Sen St,5500,850,6.47,https://www.99.co/singapore/commercial/rent/property/the-central-office-YCwRuxafxbpS5xqyScs98M#enquiry_source--Search,103.84796,1.2892
68,Tat Ann Building,D20,Jln Pemimpin,1200,370,3.24,https://www.99.co/singapore/commercial/rent/property/tat-ann-building-office-jJ6QpR8eQ52si96y94eXLK#enquiry_source--Search,103.84108,1.34868
69,Havelock2,D1,Havelock Rd,11151,1593,7.0,https://www.99.co/singapore/commercial/rent/property/havelock2-office-c2eNo9w9ML8pLVU9SSR5vF#enquiry_source--Search,103.84527,1.28711
70,New Bridge Road,D1,New Bridge Rd,12000,1373,8.74,https://www.99.co/singapore/commercial/rent/property/new-bridge-road-office-f4HGxZB8mGL8a6bsqicg4F#enquiry_source--Search,103.84088,1.28088
71,International Building,D9,Orchard Rd,2700,301,8.97,https://www.99.co/singapore/commercial/rent/property/international-building-office-LgtwYNRQDNKWwXqqnFeSYG#enquiry_source--Search,103.84812,1.29765
75,ESR Bizpark @ Changi,D16,Changi Business Pk Ave 1,109849,24411,4.5,https://www.99.co/singapore/commercial/rent/property/esr-bizpark-changi-office-CQEWPncyVem9N82meF53ny#enquiry_source--Search,103.96652,1.33567
76,Singapore Post Centre,D14,Eunos Rd 8,26000,4000,6.5,https://www.99.co/singapore/commercial/rent/property/singapore-post-centre-office-ZhfBSgwN8sooCsHocDnysf#enquiry_source--Search,103.89312,1.31887
77,Serangoon Road,D8,Serangoon Rd,4500,700,6.43,https://www.99.co/singapore/commercial/rent/property/serangoon-road-office-WJTXacGYk2nceTGU67MFe9#enquiry_source--Search,103.87303,1.34541
80,Chye Sing Building,D7,Beach Rd,7500,1700,4.41,https://www.99.co/singapore/commercial/rent/property/chye-sing-building-office-fvzWkGkF54xeCvSqTzU45S#enquiry_source--Search,103.86454,1.30348
81,Anson Road,D2,Anson Rd,11865,1582,7.5,https://www.99.co/singapore/commercial/rent/property/anson-road-office-NRpjszgfeXDULJ6gM2J2xx#enquiry_source--Search,103.90125,1.31923
82,Kreta Ayer Conservation Area,D1,Mosque St,15000,2400,6.25,https://www.99.co/singapore/commercial/rent/property/kreta-ayer-conservation-area-office-bizxYRCuFnBMgA79iQDuox#enquiry_source--Search,103.84555,1.28339
84,Prinsep Street,D7,Prinsep St,77000,14000,5.5,https://www.99.co/singapore/commercial/rent/property/prinsep-street-office-3xGkJ7ZCtp34PvbuGY4zoD#enquiry_source--Search,,
85,ADL Building,D22,Toh Guan Rd East,2142,590,3.63,https://www.99.co/singapore/commercial/rent/property/adl-building-office-BUGe45XRERW9RCAw55o43S#enquiry_source--Search,103.74828,1.33583
86,Science Centre Road,D22,Science Centre Rd,4000,1150,3.48,https://www.99.co/singapore/commercial/rent/property/science-centre-road-office-i62LpwygPKHsicrdVFRjri#enquiry_source--Search,103.74004,1.33108
87,Parkway Centre,D15,Marine Parade Ctrl,6000,1098,5.46,https://www.99.co/singapore/commercial/rent/property/parkway-centre-office-HtzGBCU4nmeSzF3zgm2Xak#enquiry_source--Search,103.90833,1.30515
88,Sunshine Plaza,D7,Bencoolen St,4000,517,7.74,https://www.99.co/singapore/commercial/rent/property/sunshine-plaza-office-ekuu5zwtvCfduvgfx2LVAR#enquiry_source--Search,103.84965,1.29823
89,Fortune Centre,D7,Middle Rd,8000,1668,4.8,https://www.99.co/singapore/commercial/rent/property/fortune-centre-office-8yGWZjX8npaVfKPFSo9gmE#enquiry_source--Search,,
91,The Plaza,D7,Beach Rd,5600,1249,4.48,https://www.99.co/singapore/commercial/rent/property/the-plaza-office-3eKDEfUvSYpfWdnHh3vKmE#enquiry_source--Search,103.86454,1.30348
93,Eastgate,D15,East Coast Rd,4800,1195,4.02,https://www.99.co/singapore/commercial/rent/property/eastgate-office-LZxEcHvek6L4QxGvLvdFb3#enquiry_source--Search,103.91942,1.3113
94,One Pemimpin,D20,Pemimpin Dr,3500,1141,3.07,https://www.99.co/singapore/commercial/rent/property/one-pemimpin-office-en65Fvxs5csLNNwjz2jwYu#enquiry_source--Search,103.84295,1.352
95,Raffles Place,D1,Raffles Pl,40000,4100,9.76,https://www.99.co/singapore/commercial/rent/property/raffles-place-office-hHkUv7eLcBZHREXPZfBszz#enquiry_source--Search,103.8508,1.2849
96,Jit Poh Building,D2,Keppel Rd,7540,1300,5.8,https://www.99.co/singapore/commercial/rent/property/jit-poh-building-office-Hq2hqPyt7tMshqrjYF4c78#enquiry_source--Search,103.83196,1.27182
97,Amoy Street,D1,Amoy St,4600,894,5.15,https://www.99.co/singapore/commercial/rent/property/amoy-street-office-GQvqCKwJyy4gKF3cgyBRCD#enquiry_source--Search,103.84858,1.28322
98,Union Building,D2,Tras St,3200,615,5.2,https://www.99.co/singapore/commercial/rent/property/union-building-office-SjWSN6SFTHZHSxb3yesjqL#enquiry_source--Search,103.84416,1.27697
103,Keck Seng Tower,D1,Cecil St,7092,1182,6.0,https://www.99.co/singapore/commercial/rent/property/keck-seng-tower-office-8yaDgTe62pyyJBvU5jF4ov#enquiry_source--Search,103.85091,1.28311
104,Valley Point,D10,River Valley Rd,9900,1539,6.43,https://www.99.co/singapore/commercial/rent/property/valley-point-office-MwWDFKDKnGsxs8CJa4X3wg#enquiry_source--Search,103.84496,1.29029
106,People's Park Centre,D1,Upp Cross St,2180,430,5.07,https://www.99.co/singapore/commercial/rent/property/peoples-park-centre-office-5y5o5xTyq4itvpQvyo8uKV#enquiry_source--Search,103.85085,1.28107
107,United Square,D11,Thomson Rd,9044,1292,7.0,https://www.99.co/singapore/commercial/rent/property/united-square-office-bKLhU4ugWKAoi69mX7ofFA#enquiry_source--Search,103.84263,1.32566
109,Hongkong Street,D1,Hongkong St,900,150,6.0,https://www.99.co/singapore/commercial/rent/property/hongkong-street-office-XQbbCM3EeTtDa9T8FXUcKD#enquiry_source--Search,103.84759,1.28755
111,One Holland Village Residences / One Holland Village,D10,Holland Village Way,27730,6650,4.17,https://www.99.co/singapore/commercial/rent/property/one-holland-village-office-SHcsXsubW5KGkdkZf5gz7i#enquiry_source--Search,-117.41681,48.74106
112,Lew Building,D1,Nth Canal Rd,5500,1300,4.23,https://www.99.co/singapore/commercial/rent/property/lew-building-office-5z9SNBQTQbcNZ8QJZSGuW#enquiry_source--Search,103.84677,1.28726
113,Tampines Plaza 2,D18,Tampines Ctrl 1,8053,1475,5.46,https://www.99.co/singapore/commercial/rent/property/tampines-plaza-2-office-57SXcSL6NVP2LGqw3Thpo6#enquiry_source--Search,103.84465,1.42327
115,Centrium Square,D8,Serangoon Rd,3800,570,6.67,https://www.99.co/singapore/commercial/rent/property/centrium-square-office-cTawq4b8Wxs3sgUa3UfxoV#enquiry_source--Search,103.85217,1.30548
116,Tanglin Shopping Centre,D10,Tanglin Rd,2100,344,6.1,https://www.99.co/singapore/commercial/rent/property/tanglin-shopping-centre-office-4NxWPNxSJhd5XuEDJLvnN7#enquiry_source--Search,103.82732,1.30667
117,Alexandra Road,D5,Alexandra Rd,30000,6000,5.0,https://www.99.co/singapore/commercial/rent/property/alexandra-road-office-o6AXspFNeEUkzuU49YfxWF#enquiry_source--Search,103.80223,1.28012
118,Arc 380,D8,Jln Besar,4480,700,6.4,https://www.99.co/singapore/commercial/rent/property/arc-380-office-pfUZju2HzFekkjV28gA6vV#enquiry_source--Search,103.86044,1.3134
119,International Plaza,D2,Anson Rd,8267,1378,6.0,https://www.99.co/singapore/commercial/rent/property/international-plaza-office-JouPnLgFePkjMXcHFW939P#enquiry_source--Search,103.90125,1.31923
120,Bylands Building,D7,Middle Rd,5900,1323,4.46,https://www.99.co/singapore/commercial/rent/property/bylands-building-office-3nTAKqpPHctLJhy6mgS47#enquiry_source--Search,103.85194,1.29954
121,Victoria Street,D7,Victoria St,300000,30000,10.0,https://www.99.co/singapore/commercial/rent/property/victoria-street-office-xBhP7AfvBChT9SfghBuxLF#enquiry_source--Search,103.85122,1.29462
124,Bangkok Bank Building,D1,Cecil St,23100,4200,5.5,https://www.99.co/singapore/commercial/rent/property/bangkok-bank-building-office-C4QCFPpPN5zFz39ahZ5ovG#enquiry_source--Search,103.96126,1.34068
125,The Bencoolen,D7,Bencoolen St,6770,1302,5.2,https://www.99.co/singapore/commercial/rent/property/the-bencoolen-office-X5m8Rw8wDBQuaiLqCn7uJg#enquiry_source--Search,103.84965,1.29823
127,Goldhill Plaza,D11,Goldhill Plaza,8965,1630,5.5,https://www.99.co/singapore/commercial/rent/property/goldhill-plaza-office-XtBFqQnbUwmQbnqKgX4625#enquiry_source--Search,103.84289,1.31783
128,OG Albert Complex,D7,Albert St,2860,550,5.2,https://www.99.co/singapore/commercial/rent/property/og-albert-complex-office-F5ofiv8x2pDSxjTWAgw2QX#enquiry_source--Search,103.76998,1.32051
130,Orchard Rendezvous Hotel,D10,Tanglin Rd,3272,409,8.0,https://www.99.co/singapore/commercial/rent/property/orchard-rendezvous-hotel-office-eHMWqXc9ev5hBgRkZsp5q9#enquiry_source--Search,103.82732,1.30667
131,Far East Shopping Centre,D9,Orchard Rd,5120,883,5.8,https://www.99.co/singapore/commercial/rent/property/far-east-shopping-centre-office-KPguUnqp8Mu2h63s7vGFED#enquiry_source--Search,103.84812,1.29765
132,Gul Circle,D22,Gul Circle,6500,5000,1.3,https://www.99.co/singapore/commercial/rent/property/gul-circle-office-NAsV5RjMEmYnE3D34iCdwX#enquiry_source--Search,103.6777,1.31391
134,Sky Line Building,D7,Waterloo St,2812,625,4.5,https://www.99.co/singapore/commercial/rent/property/sky-line-building-office-2SWTgStuSHpviURBT7zpdv#enquiry_source--Search,103.85054,1.29809
147,Tripleone Somerset,D9,Somerset Rd,5647,753,7.5,https://www.99.co/singapore/commercial/rent/property/tripleone-somerset-office-TyfWhLzmmH4FFAe2Q9MLZj#enquiry_source--Search,103.83844,1.30044
148,Gateway West,D7,Beach Rd,5557,741,7.5,https://www.99.co/singapore/commercial/rent/property/gateway-west-office-MuWTDvZjF6GznRMo7ybQPJ#enquiry_source--Search,103.86454,1.30348
149,Bukit Merah Central,D3,Bt Merah Ctrl,3000,678,4.42,https://www.99.co/singapore/commercial/rent/property/bukit-merah-central-office-3SjkJUgaDMC3yXA2ViZFRF#enquiry_source--Search,103.81456,1.28453
151,Joo Chiat Road,D15,Joo Chiat Rd,3199,1190,2.69,https://www.99.co/singapore/commercial/rent/property/joo-chiat-road-office-TY7ap2QpwhTxmHVmddPSFg#enquiry_source--Search,103.89838,1.31588
152,Ark @ Gambas,D27,Gambas Cres,3300,1711,1.93,https://www.99.co/singapore/commercial/rent/property/ark-gambas-office-45G5vvnfUvJVbJAqirrpwC#enquiry_source--Search,103.95572,1.38058
153,Pacific Tech Centre,D3,Jln Kilang Timor,10201,3778,2.7,https://www.99.co/singapore/commercial/rent/property/pacific-tech-centre-office-3pM7LzqY7NV857jA5z3u3i#enquiry_source--Search,103.81076,1.2854
154,Raeburn Park,D2,Raeburn Pk,1274,260,4.9,https://www.99.co/singapore/commercial/rent/property/raeburn-park-office-WxD7h5PvVEWTg33PvPRctr#enquiry_source--Search,103.85177,1.27703
155,Plaza 8 @ Cbp,D16,Changi Business Pk Cres,7484,1782,4.2,https://www.99.co/singapore/commercial/rent/property/plaza-8-cbp-office-aUDY3uWsoD6KYYXspsdFeS#enquiry_source--Search,103.96652,1.33567
156,Honeywell Building,D16,Changi Business Pk Ctrl 1,44604,10373,4.3,https://www.99.co/singapore/commercial/rent/property/honeywell-building-office-jAgXyfZTSf8Z8FzUUjFrz4#enquiry_source--Search,103.96652,1.33567
158,Akzonobel House,D16,Changi Business Pk Vista,19119,4902,3.9,https://www.99.co/singapore/commercial/rent/property/akzonobel-house-office-T6NHZ3rqcVF8XYBiTJ892g#enquiry_source--Search,103.96652,1.33567
159,Hansapoint @ Cbp,D16,Changi Business Pk Ctrl 2,136350,30300,4.5,https://www.99.co/singapore/commercial/rent/property/hansapoint-cbp-office-MhqGBBGDKArsRg9wkWq2PF#enquiry_source--Search,103.96652,1.33567
160,Changi Business Park Avenue 1,D16,Changi Business Pk Ave 1,12582,2796,4.5,https://www.99.co/singapore/commercial/rent/property/changi-business-park-avenue-1-office-a4xmxtFi9RMnHkv6boGXV3#enquiry_source--Search,103.96652,1.33567
162,One @ Changi City,D16,Changi Business Pk Ctrl 1,18529,3369,5.5,https://www.99.co/singapore/commercial/rent/property/one-changi-city-office-RxThhprh2tAtPaUYhv8TXW#enquiry_source--Search,103.96652,1.33567
171,Fragrance Empire Building,D5,Alexandra Rd,20501,3154,6.5,https://www.99.co/singapore/commercial/rent/property/fragrance-empire-building-office-vRdcknnGDqLfQEjMtzY2JY#enquiry_source--Search,103.80223,1.28012
172,Wave9,D27,Woodlands Industrial Pk E9,4900,1840,2.66,https://www.99.co/singapore/commercial/rent/property/wave9-office-NfgZqFrsKWc62xcgrKVUoc#enquiry_source--Search,,
173,Woodlands 11,D25,Woodlands Cl,1500,438,3.42,https://www.99.co/singapore/commercial/rent/property/woodlands-11-office-Nx63CMqf2jtNtZY4q3JRn7#enquiry_source--Search,103.80311,1.43518
174,Serangoon Garden Estate,D19,Maju Ave,6500,1200,5.42,https://www.99.co/singapore/commercial/rent/property/serangoon-garden-estate-office-DKg92BKBBMhF3zmS2coJpB#enquiry_source--Search,103.8654,1.36496
176,Fook Hai Building,D1,Sth Bridge Rd,3000,440,6.82,https://www.99.co/singapore/commercial/rent/property/fook-hai-building-office-GoXXDn77DV6uHpwZv4d7dx#enquiry_source--Search,103.96126,1.34068
178,Petain Road/Tyrwhitt Road Conservation Area,D8,Jln Besar,17900,5320,3.36,https://www.99.co/singapore/commercial/rent/property/petain-roadtyrwhitt-road-conservation-area-office-cmyyqDAD7Kcca9PuYqwAb4#enquiry_source--Search,100.91018,4.4772
180,Rigel Innovation Centre,D16,Changi Business Pk Ctrl 2,15132,5044,3.0,https://www.99.co/singapore/commercial/rent/property/rigel-innovation-centre-office-4vRRwYgNNLCzZGucA6UsfU#enquiry_source--Search,103.96652,1.33567
181,Icb Enterprise House,D7,Middle Rd,700,70,10.0,https://www.99.co/singapore/commercial/rent/property/icb-enterprise-house-office-aJC8SuHMocq6GnfTBWGqYB#enquiry_source--Search,103.70291,1.3339
183,AZ @ Paya Lebar,D14,Paya Lebar Rd,5000,1970,2.54,https://www.99.co/singapore/commercial/rent/property/az-paya-lebar-office-DWNe8EcYaCMQsFRQqLHhrR#enquiry_source--Search,103.88075,1.34981
184,North Bridge Centre,D7,Nth Bridge Rd,1565,204,7.67,https://www.99.co/singapore/commercial/rent/property/north-bridge-centre-office-mzxQfoRGaNKoJjLnZq2i67#enquiry_source--Search,103.84896,1.29042
186,Far East Finance Building,D1,Robinson Rd,8600,1432,6.01,https://www.99.co/singapore/commercial/rent/property/far-east-finance-building-office-8MF3kAgv8UqiyUdpsJL4Lr#enquiry_source--Search,103.84864,1.27909
189,Regency House,D9,Penang Rd,12270,1636,7.5,https://www.99.co/singapore/commercial/rent/property/regency-house-office-mGYfDVfpvkH36jtPyW5Krp#enquiry_source--Search,103.88218,1.30231
190,Robinson Square,D1,Robinson Rd,7800,1184,6.59,https://www.99.co/singapore/commercial/rent/property/robinson-square-office-2JvbVVTBjaVcJzuJu3ZYqj#enquiry_source--Search,103.84864,1.27909
194,Bukit Pasoh Extnsn Constn Area,D2,Keong Saik Rd,40000,3700,10.81,https://www.99.co/singapore/commercial/rent/property/bukit-pasoh-extnsn-constn-area-office-8HaY3Dq7A6xcsG9jVQip8x#enquiry_source--Search,103.84141,1.27879
196,Amara Singapore,D2,Tg Pagar Rd,34765,4090,8.5,https://www.99.co/singapore/commercial/rent/property/amara-singapore-office-JhbVBs5RPKpeyMG96xrn4V#enquiry_source--Search,103.84427,1.27996
198,Kallang Avenue,D12,Kallang Ave,17900,3000,5.97,https://www.99.co/singapore/commercial/rent/property/kallang-avenue-office-giAekaZYQZFUKejbDEiuu8#enquiry_source--Search,103.87396,1.32242
199,OCBC Centre,D1,Chulia St,60000,6000,10.0,https://www.99.co/singapore/commercial/rent/property/ocbc-centre-office-XLTnv8rWQYnpNef8rVd3xt#enquiry_source--Search,103.84976,1.28507
209,Parkway Parade,D15,Marine Parade Rd,6200,956,6.49,https://www.99.co/singapore/commercial/rent/property/parkway-parade-office-4KwgbFGmNxeqBS3Q7TKFrU#enquiry_source--Search,103.90336,1.30138
210,Asia Square Towers,D1,Marina View,182000,14000,13.0,https://www.99.co/singapore/commercial/rent/property/asia-square-towers-office-d6uhGz5cStBmsJf9Vaxsyp#enquiry_source--Search,103.85323,1.28084
227,Camden Centre / Camden Medical Centre,D10,Orchard Boulevard,10010,770,13.0,https://www.99.co/singapore/commercial/rent/property/camden-centre-camden-medical-centre-office-V9P3feEkGBRB7bVzr5SKVR#enquiry_source--Search,,
228,Marina Bay Financial Centre,D1,Marina Boulevard,312000,24000,13.0,https://www.99.co/singapore/commercial/rent/property/marina-bay-financial-centre-office-3968pYhYCqHSekVNjzYpTZ#enquiry_source--Search,103.85323,1.27608
254,Neil Road,D2,Neil Rd,58000,6600,8.79,https://www.99.co/singapore/commercial/rent/property/neil-road-office-NJP7doiZ7h4W2YbxNXEWoT#enquiry_source--Search,103.84383,1.28017
255,Tanjong Pagar Conservation Area,D2,Tras St,19500,2600,7.5,https://www.99.co/singapore/commercial/rent/property/tanjong-pagar-conservation-area-office-Wdpf9JkTGoAPwhHAvvywkc#enquiry_source--Search,103.86732,1.29786
258,Malacca Centre,D1,Malacca St,12500,1860,6.72,https://www.99.co/singapore/commercial/rent/property/malacca-centre-office-YdmKGaFxBge67Rz3HgoTTQ#enquiry_source--Search,103.85086,1.28395
261,Cecil Street,D1,Cecil St,5023,897,5.6,https://www.99.co/singapore/commercial/rent/property/cecil-street-office-fhU9CoMQEXCdURjesHRix9#enquiry_source--Search,103.84836,1.27945
264,T-Space,D18,Tampines Nth Dr 1,7800,2422,3.22,https://www.99.co/singapore/commercial/rent/property/tspace-office-kosbpmGVXbM4pnb9JKapLk#enquiry_source--Search,103.94731,1.34433
265,Jun Xin Building,D7,Nth Bridge Rd,15870,3170,5.01,https://www.99.co/singapore/commercial/rent/property/jun-xin-building-office-8zwmEwKdChbS932aky6CiF#enquiry_source--Search,103.96126,1.34068
269,Raffles City Tower,D6,Nth Bridge Rd,8800,1021,8.62,https://www.99.co/singapore/commercial/rent/property/raffles-city-tower-office-FXrErCjM8aDj4bVmLrdyxM#enquiry_source--Search,103.85313,1.29335
270,Guoco Tower,D2,Wallich St,71000,5091,13.95,https://www.99.co/singapore/commercial/rent/property/guoco-tower-office-nCqPBJWyRomgP9TuX8BwAT#enquiry_source--Search,,
272,One Raffles Place,D1,Raffles Pl,125160,10430,12.0,https://www.99.co/singapore/commercial/rent/property/one-raffles-place-office-5jZo3JaLodpEJtgqy9gHpD#enquiry_source--Search,,
281,Amtech Building,D20,Sin Ming Rd,3100,721,4.3,https://www.99.co/singapore/commercial/rent/property/amtech-building-office-YJe9e55xr2ray8W6E75TG6#enquiry_source--Search,103.83558,1.35265
284,Guthrie House,D10,Fifth Ave,9450,1350,7.0,https://www.99.co/singapore/commercial/rent/property/guthrie-house-office-mBMDJwfEETHmjLERu7ZiQS#enquiry_source--Search,103.79542,1.33067
291,Cecil Building,D1,Cecil St,168000,20000,8.4,https://www.99.co/singapore/commercial/rent/property/cecil-building-office-VLjFj2FvpveuqEzGv2X6PV#enquiry_source--Search,103.84836,1.27945
292,Bugis Junction Towers,D7,Victoria St,94278,9924,9.5,https://www.99.co/singapore/commercial/rent/property/bugis-junction-towers-office-TvAH82kLeAjyyVtoaE8Lws#enquiry_source--Search,103.85536,1.29844
295,Pekin Street,D1,Pekin St,11800,1816,6.5,https://www.99.co/singapore/commercial/rent/property/pekin-street-office-B2h8UmSyGr2o3vwsxyV9M6#enquiry_source--Search,103.84845,1.2835
298,Centennial Tower,D1,Temasek Ave,31902,2454,13.0,https://www.99.co/singapore/commercial/rent/property/centennial-tower-office-Fr4UmkpzfKQ5uYv2VaMZJ8#enquiry_source--Search,103.86034,1.29279
299,Crystal Time Building,D13,Tannery Lane,6950,3020,2.3,https://www.99.co/singapore/commercial/rent/property/crystal-time-building-office-Mi8JC6XU72ZfVyFCHRXcXW#enquiry_source--Search,103.87509,1.32959
301,Goodland Group Building,D19,Kim Chuan Lane,8500,2454,3.46,https://www.99.co/singapore/commercial/rent/property/goodland-group-building-office-4QeLBy2Nepoe5oJwJUfyvi#enquiry_source--Search,103.8918,1.33945
303,King's Centre,D3,Havelock Rd,12560,1744,7.2,https://www.99.co/singapore/commercial/rent/property/kings-centre-office-hPbDcUoEDYNrfVzKbkdAHN#enquiry_source--Search,103.83997,1.29013
305,E-Centre @ Redhill,D3,Jln Bt Merah,3000,990,3.03,https://www.99.co/singapore/commercial/rent/property/ecentre-redhill-office-5cQunkrjyWV8fH7PLug2x4#enquiry_source--Search,103.81713,1.28947
306,WIS @ Changi,D14,Changi Rd,890000,506,1758.89,https://www.99.co/singapore/commercial/rent/property/wis-changi-office-jNyeyqqfzp8orLKBWwrnfn#enquiry_source--Search,103.91744,1.32068
308,The Adelphi,D6,,2050,300,6.83,https://www.99.co/singapore/commercial/rent/property/the-adelphi-office-PAzixKFkwMuWj9hjUv7iDb#enquiry_source--Search,103.85125,1.29131
310,Tuas Techpark,D22,Tech Pk Cres,25498,7285,3.5,https://www.99.co/singapore/commercial/rent/property/tuas-techpark-office-HFQFoHML8UY4hWsMUoTwFA#enquiry_source--Search,103.84721,1.39035
311,Lee King Hwa Building,D19,Tai Seng Link,2800,550,5.09,https://www.99.co/singapore/commercial/rent/property/lee-king-hwa-building-office-bukFBKEcYbQPSorxPy9Nup#enquiry_source--Search,103.88942,1.33622
313,The Octagon,D1,Cecil St,40000,6189,6.46,https://www.99.co/singapore/commercial/rent/property/the-octagon-office-yrCxsuDwZwdh49WcBY7xN4#enquiry_source--Search,103.84836,1.27945
315,SIF Building,D1,Robinson Rd,7200,987,7.29,https://www.99.co/singapore/commercial/rent/property/sif-building-office-eUXj8HMdaWkaMHmMf4GX7A#enquiry_source--Search,103.84864,1.27909
320,The House Of Eden,D1,Robinson Rd,5400,665,8.12,https://www.99.co/singapore/commercial/rent/property/the-house-of-eden-office-MVbbpqZUe9eptEjhH6Qn24#enquiry_source--Search,103.84864,1.27909
329,China Street,D1,China St,17280,2400,7.2,https://www.99.co/singapore/commercial/rent/property/china-street-office-mSbQPjvDspiptYEY49gdo8#enquiry_source--Search,103.84783,1.28357
357,Jurong Town Hall,D22,Jurong Town Hall Rd,4000,1150,3.48,https://www.99.co/singapore/commercial/rent/property/jurong-town-hall-office-4v3iTTTeXnSQrGEMrENnzJ#enquiry_source--Search,103.72094,1.35105
359,Paya Lebar Square,D14,Paya Lebar Rd,6500,950,6.84,https://www.99.co/singapore/commercial/rent/property/paya-lebar-square-office-Xcc7uP97THuxnEqnq6iLT4#enquiry_source--Search,103.88075,1.34981
362,Ibis Singapore Bencoolen,D7,Bencoolen St,6490,1475,4.4,https://www.99.co/singapore/commercial/rent/property/ibis-singapore-bencoolen-office-Mzp5sC53pbtpXvYiTkdr5E#enquiry_source--Search,103.84965,1.29823
363,Viva Vista,D5,Sth Buona Vista Rd,1400,280,5.0,https://www.99.co/singapore/commercial/rent/property/viva-vista-office-PzZee6qRaGG2F9wz89CrFT#enquiry_source--Search,103.79282,1.30963
375,Fusionopolis Link,D5,Fusionopolis Link,21864,3644,6.0,https://www.99.co/singapore/commercial/rent/property/fusionopolis-link-office-byMafATABF8ua57KdDLZj9#enquiry_source--Search,103.78961,1.29925
376,City House,D1,Robinson Rd,11000,1313,8.38,https://www.99.co/singapore/commercial/rent/property/city-house-office-oD9krjQ24GSp2rmeaKYeWB#enquiry_source--Search,103.84864,1.27909
378,Ocean Financial Centre,D1,Collyer Quay,17285,1744,9.91,https://www.99.co/singapore/commercial/rent/property/ocean-financial-centre-office-iEV2YPAa9mHR9PxMKauhZP#enquiry_source--Search,103.85273,1.28274
381,PSA Vista,D5,Harbour Dr,18800,4193,4.48,https://www.99.co/singapore/commercial/rent/property/psa-vista-office-3T6RFDf7KGzddMghxK5FgN#enquiry_source--Search,103.78043,1.28179
386,Boat Quay Conservation Area,D1,Circular Rd,5736,1195,4.8,https://www.99.co/singapore/commercial/rent/property/boat-quay-conservation-area-office-Phv7icngLYnGKR6puQyRmn#enquiry_source--Search,103.84891,1.28796
388,The Synergy,D22,International Business Pk,1764,420,4.2,https://www.99.co/singapore/commercial/rent/property/the-synergy-office-kfqXVuL3srEtKw4qDjByDa#enquiry_source--Search,103.74914,1.32891
389,Concorde Shopping Centre,D3,Outram Rd,68321,12422,5.5,https://www.99.co/singapore/commercial/rent/property/concorde-shopping-centre-office-eRZHqgra4ioszVt4ftg7Xd#enquiry_source--Search,103.83673,1.28233
390,The Riverwalk,D1,Upp Circular Rd,4202,667,6.3,https://www.99.co/singapore/commercial/rent/property/the-riverwalk-office-Zojx5W78gdzpS7ojJDWuPe#enquiry_source--Search,103.84891,1.28796
395,Mohamed Sultan Road,D9,Mohamed Sultan Rd,3000,580,5.17,https://www.99.co/singapore/commercial/rent/property/mohamed-sultan-road-office-RgJJACUkXYiFv8Y2Re72R6#enquiry_source--Search,103.83936,1.29117
396,100 AM,D2,Tras St,6028,753,8.01,https://www.99.co/singapore/commercial/rent/property/100-am-office-Sj7aUqAFSGRzDS7aeTKxBn#enquiry_source--Search,103.8434,1.27468
400,The Commerze @ Irving,D13,Irving Pl,3000,1400,2.14,https://www.99.co/singapore/commercial/rent/property/the-commerze-irving-office-QhwUJaK8d9k2kx8Gbvvh3u#enquiry_source--Search,103.88606,1.3361
411,Hd 139,D1,Cecil St,43238,6652,6.5,https://www.99.co/singapore/commercial/rent/property/hd-139-office-XgawVp6nPAKHZdzh2Vd5mX#enquiry_source--Search,103.84852,1.27944
413,Bulkhaul House,D7,Beach Rd,18200,3500,5.2,https://www.99.co/singapore/commercial/rent/property/bulkhaul-house-office-L6q3rDuWwzcHdydpxgkGub#enquiry_source--Search,103.86454,1.30348
418,Textile Centre,D7,Jln Sultan,3800,893,4.26,https://www.99.co/singapore/commercial/rent/property/textile-centre-office-ChSDpAZCcCaqsTXpbw6ASB#enquiry_source--Search,103.86154,1.30243
419,Tradehub 21,D22,Boon Lay Way,1650,500,3.3,https://www.99.co/singapore/commercial/rent/property/tradehub-21-office-Xu7CFBbkdaQvrQhyr47yFG#enquiry_source--Search,103.75158,1.32874
421,Upper Bukit Timah Road,D21,Upp Bt Timah Rd,14500,3600,4.03,https://www.99.co/singapore/commercial/rent/property/upper-bukit-timah-road-office-RnUedENmXnp4YDNAzziEPB#enquiry_source--Search,103.77334,1.34528
423,Harbourfront Centre,D4,Maritime Square,19000,3000,6.33,https://www.99.co/singapore/commercial/rent/property/harbourfront-centre-office-EyMzr6aENt5nA3nATjeERT#enquiry_source--Search,103.82038,1.2637
428,The Concourse,D7,Beach Rd,25000,3380,7.4,https://www.99.co/singapore/commercial/rent/property/the-concourse-office-ftBeTyRNjPhMCa5B9oboDf#enquiry_source--Search,103.86454,1.30348
432,Kreta Ayer Conservation Area,D1,New Bridge Rd,12000,1373,8.74,https://www.99.co/singapore/commercial/rent/property/kreta-ayer-conservation-area-office-8s9CrF5k6TbEQrSpPHDhLA#enquiry_source--Search,,
434,Tampines Plaza 1,D18,Tampines Ctrl 1,22009,4114,5.35,https://www.99.co/singapore/commercial/rent/property/tampines-plaza-1-office-VPEXJq4NVvAhh6ufn37Q4P#enquiry_source--Search,103.94731,1.34433
435,20 Collyer Quay,D1,Collyer Quay,10310,1001,10.3,https://www.99.co/singapore/commercial/rent/property/20-collyer-quay-office-35C8gXEYfYKSGetuUrqDjA#enquiry_source--Search,103.85269,1.28469
436,Tan Chong Tower,D7,Queen St,3863,623,6.2,https://www.99.co/singapore/commercial/rent/property/tan-chong-tower-office-HBEWrAWmuPWcskdAqaBsRZ#enquiry_source--Search,103.85177,1.297
448,Lazada One,D7,Bras Basah Rd,11950,1195,10.0,https://www.99.co/singapore/commercial/rent/property/lazada-one-office-QsL8LFpWkxkBTfSvGMJeQW#enquiry_source--Search,103.84871,1.29858
449,HDB-Ang Mo Kio,D20,Ang Mo Kio Ave 4,5500,1655,3.32,https://www.99.co/singapore/commercial/rent/property/hdbang-mo-kio-office-2KSqm3RBKZpqBXKcEEznBY#enquiry_source--Search,103.83714,1.37141
452,Harper Point,D13,Harper Rd,5325,1065,5.0,https://www.99.co/singapore/commercial/rent/property/harper-point-office-bamwigwG3eEQ77fdgCtJVo#enquiry_source--Search,103.78043,1.28179
456,Blair Plain Conservation Area,D3,Kg Bahru Rd,13000,3605,3.61,https://www.99.co/singapore/commercial/rent/property/blair-plain-conservation-area-office-ccrAmsWYJcK94zRssvcz3x#enquiry_source--Search,103.82596,1.26861
458,Kim Hoe Centre,D8,Kelantan Lane,15600,3250,4.8,https://www.99.co/singapore/commercial/rent/property/kim-hoe-centre-office-QowTHikGDdrs4VCUkSMgLb#enquiry_source--Search,103.85657,1.30708
460,Baker Street,D28,Baker St,13500,2950,4.58,https://www.99.co/singapore/commercial/rent/property/baker-street-office-8EaUp7ZtzUWbV2hQrX66Fq#enquiry_source--Search,103.87064,1.40924
462,Genting Building,D13,Genting Lane,3700,1360,2.72,https://www.99.co/singapore/commercial/rent/property/genting-building-office-WdQpLyPLFajzd78rrX3xZV#enquiry_source--Search,103.87342,1.32883
463,Lock+Store Chai Chee,D16,Chai Chee Lane,2200,630,3.49,https://www.99.co/singapore/commercial/rent/property/lock+store-chai-chee-office-VRfkUGacMbdxdbzKkLf3G4#enquiry_source--Search,103.91717,1.32805
469,Central Plaza,D3,Tiong Bahru Rd,13725,1830,7.5,https://www.99.co/singapore/commercial/rent/property/central-plaza-office-LyF42BtPFL2npBKJqRc42m#enquiry_source--Search,103.83259,1.28578
475,51 Cuppage Road,D9,Cuppage Rd,6714,1033,6.5,https://www.99.co/singapore/commercial/rent/property/51-cuppage-road-office-9m8kppxNvWAJUVR2tigMHq#enquiry_source--Search,103.84022,1.30274
478,Hana,D10,Tomlinson Rd,40000,3531,11.33,https://www.99.co/singapore/commercial/rent/property/hana-office-z244YZq4gw4CLRyJoM7UnF#enquiry_source--Search,103.82594,1.3035
484,Hong Leong Building,D1,Raffles Quay,56700,6300,9.0,https://www.99.co/singapore/commercial/rent/property/hong-leong-building-office-cMymecuPX77iyrxEHGvA8y#enquiry_source--Search,103.8519,1.28118
486,Lian Huat Building,D2,Tras St,2160,400,5.4,https://www.99.co/singapore/commercial/rent/property/lian-huat-building-office-PAWR2o8FaENSMfcqBoVYaJ#enquiry_source--Search,103.96126,1.34068
498,NTUC Income Tampines Junction,D18,Tampines Ave 5,11848,2174,5.45,https://www.99.co/singapore/commercial/rent/property/ntuc-income-tampines-junction-office-tn58ScrMh3DjZsJ8gET98b#enquiry_source--Search,103.94174,1.35368
499,Gateway East,D7,Beach Rd,4725,630,7.5,https://www.99.co/singapore/commercial/rent/property/gateway-east-office-STgYr8wssnQ4FRCYkh8MkP#enquiry_source--Search,103.86454,1.30348
500,Stamford Road,D6,Stamford Rd,4165,670,6.22,https://www.99.co/singapore/commercial/rent/property/stamford-road-office-gmGxGUhcDBEBdRVDDKXbhP#enquiry_source--Search,103.85745,1.30346
501,Wcega Tower,D23,Bt Batok Cres,1200,215,5.58,https://www.99.co/singapore/commercial/rent/property/wcega-tower-office-n9JFj4hwz5K8oSFBYQ3tDe#enquiry_source--Search,103.85091,1.28311
504,Eon Shenton,D2,Shenton Way,23888,3250,7.35,https://www.99.co/singapore/commercial/rent/property/eon-shenton-office-h62Vfj9qiBB3HGgPW9wrCK#enquiry_source--Search,103.85055,1.27929
505,Braddell Road,D20,Braddell Rd,12750,5532,2.3,https://www.99.co/singapore/commercial/rent/property/braddell-road-office-aLfMjGKpG9cUynvHowTjJ5#enquiry_source--Search,,
506,Middle Road,D7,Middle Rd,2280,474,4.81,https://www.99.co/singapore/commercial/rent/property/middle-road-office-M8gLqSnZYkUw7Y6i8zFEJm#enquiry_source--Search,103.85559,1.29701
511,Tt International Tradepark,D22,Toh Guan Rd,17873,7771,2.3,https://www.99.co/singapore/commercial/rent/property/tt-international-tradepark-office-3gtoVvqCwsPm4zNNQkJocg#enquiry_source--Search,103.74828,1.33583
515,Jalan Besar Plaza,D8,Kitchener Rd,20000,4500,4.44,https://www.99.co/singapore/commercial/rent/property/jalan-besar-plaza-office-fRsynDjDXBHnUWcJ8MxJhr#enquiry_source--Search,103.85755,1.30947
518,Shenton House,D1,Shenton Way,5700,1150,4.96,https://www.99.co/singapore/commercial/rent/property/shenton-house-office-JKaC3XWvf4VUJGD4GCEMfP#enquiry_source--Search,103.85055,1.27929
523,Capitasky,D1,Robinson Rd,79068,6586,12.01,https://www.99.co/singapore/commercial/rent/property/capitasky-office-VATCwWAjKwBBHnrT7jymTZ#enquiry_source--Search,103.84864,1.27909
528,Burlington Square,D7,Bencoolen St,3100,549,5.65,https://www.99.co/singapore/commercial/rent/property/burlington-square-office-oW5Pi24jJvEzPKCqXmc49h#enquiry_source--Search,103.84965,1.29823
531,Geylang Conservation Area,D14,Geylang Rd,1350,356,3.79,https://www.99.co/singapore/commercial/rent/property/geylang-conservation-area-office-iTJtCGMWEmPHqJqpR9JfUf#enquiry_source--Search,,
532,Manhattan House,D3,Chin Swee Rd,2064,645,3.2,https://www.99.co/singapore/commercial/rent/property/manhattan-house-office-rhHMPAFS4fPvpJmuV8Zb4#enquiry_source--Search,103.84198,1.28715
538,Unity Centre,D23,Bt Batok Cres,1300,207,6.28,https://www.99.co/singapore/commercial/rent/property/unity-centre-office-Twuq7J28AZjPxCxyn4VQKc#enquiry_source--Search,103.75685,1.3376
545,Woodlands Terrace,D25,Woodlands Terrace,4000,1400,2.86,https://www.99.co/singapore/commercial/rent/property/woodlands-terrace-office-KNLMKpH5BJ4i9Pb3m4hHQ3#enquiry_source--Search,103.80506,1.45089
546,Bauer Building,D22,Tuas Ave 11,2083,1302,1.6,https://www.99.co/singapore/commercial/rent/property/bauer-building-office-PZ4qPscvAVqGxNzTFPMGsr#enquiry_source--Search,103.6596,1.32194
557,Tiong Bahru Orchid,D3,Jln Bt Merah,11700,3000,3.9,https://www.99.co/singapore/commercial/rent/property/tiong-bahru-orchid-office-2vqCFt7MbhxbCTnyQ2MhYg#enquiry_source--Search,103.82732,1.2861
558,Grandlink Square,D14,Guillemard Rd,2500,517,4.84,https://www.99.co/singapore/commercial/rent/property/grandlink-square-office-6jCAd2FkS3jtUwRDw4uFR8#enquiry_source--Search,103.87699,1.30873
563,Harvest @ Woodlands,D27,Woodlands Industrial Pk E5,1200,250,4.8,https://www.99.co/singapore/commercial/rent/property/harvest-woodlands-office-M3FwzmZKk3uqFbAZpURuCY#enquiry_source--Search,103.7915,1.44976
565,22 Martin Road,D9,Martin Rd,40005,4445,9.0,https://www.99.co/singapore/commercial/rent/property/22-martin-road-office-ZH8Bj9enmdStrzrto9SSpQ#enquiry_source--Search,103.83839,1.29172
566,CES Centre,D3,Chin Swee Rd,53690,9257,5.8,https://www.99.co/singapore/commercial/rent/property/ces-centre-office-mAKobRcJmGuz52ixCqxVpK#enquiry_source--Search,103.84198,1.28715
568,UE Square,D9,Clemenceau Ave,17936,2242,8.0,https://www.99.co/singapore/commercial/rent/property/ue-square-office-sbXAgn2RcQ5pLpSHjK837B#enquiry_source--Search,103.84301,1.29317
569,18 Tai Seng,D19,Tai Seng St,33735,5190,6.5,https://www.99.co/singapore/commercial/rent/property/18-tai-seng-office-JqJkCtpS5brPjMPLUfegzc#enquiry_source--Search,103.88872,1.3358
571,Ah Hood Road,D12,Ah Hood Rd,6846,1141,6.0,https://www.99.co/singapore/commercial/rent/property/ah-hood-road-office-LwcekLvrKZxXVYq8JbyNEo#enquiry_source--Search,103.84795,1.32855
573,Keppel Bay Tower,D4,Harbourfront Ave,55161,6727,8.2,https://www.99.co/singapore/commercial/rent/property/keppel-bay-tower-office-9u7Cxa9nTcYe39AxfVinYe#enquiry_source--Search,103.81844,1.26472
574,Robinson Road,D1,Robinson Rd,26809,3154,8.5,https://www.99.co/singapore/commercial/rent/property/robinson-road-office-U8FMpAEGWjH8KaLQDzhRVF#enquiry_source--Search,103.84864,1.27909
577,South Beach Tower,D7,Beach Rd,232700,17900,13.0,https://www.99.co/singapore/commercial/rent/property/south-beach-tower-office-hUn3ztTGwKJQJxUSiUyyXz#enquiry_source--Search,103.85091,1.28311
578,Millenia Tower,D1,Temasek Ave,39745,2799,14.2,https://www.99.co/singapore/commercial/rent/property/millenia-tower-office-kqfxiwtk3YmJycgGDsUzRY#enquiry_source--Search,103.86034,1.29279
581,Odeon Towers,D7,Nth Bridge Rd,70176,8256,8.5,https://www.99.co/singapore/commercial/rent/property/odeon-towers-office-WKatJHog8GMU2uWcBYzDCb#enquiry_source--Search,103.85328,1.29624
586,Mosque Street,D1,Mosque St,15000,1719,8.73,https://www.99.co/singapore/commercial/rent/property/mosque-street-office-KFgNCs5QRsTKeQzNukWi4L#enquiry_source--Search,103.84555,1.28339
587,Telok Ayer Street,D1,Telok Ayer St,3900,800,4.88,https://www.99.co/singapore/commercial/rent/property/telok-ayer-street-office-bxMTVS8MY7fPYbpjBWpzEu#enquiry_source--Search,,
588,UIC Building,D1,Shenton Way,59581,5181,11.5,https://www.99.co/singapore/commercial/rent/property/uic-building-office-SKCFCL6e3CUTRRx999waYJ#enquiry_source--Search,103.85055,1.27929
589,Tahir Building,D1,Robinson Rd,61137,6793,9.0,https://www.99.co/singapore/commercial/rent/property/tahir-building-office-P9igs4CBGDz29SzbcGh4Bj#enquiry_source--Search,103.84864,1.27909
591,ERH Building,D1,Robinson Rd,8009,1381,5.8,https://www.99.co/singapore/commercial/rent/property/erh-building-office-GGvYfoDT5gHynGyiKkwavK#enquiry_source--Search,103.84864,1.27909
592,MYP Centre,D1,Battery Rd,45320,4120,11.0,https://www.99.co/singapore/commercial/rent/property/myp-centre-office-W75jWi4oB6xwqkV9UxqwK8#enquiry_source--Search,103.85254,1.28592
594,Capital Tower,D1,Robinson Rd,71800,7180,10.0,https://www.99.co/singapore/commercial/rent/property/capital-tower-office-g7PUnZo39WUzLuKJZhZyEf#enquiry_source--Search,103.85091,1.28311
598,Alexandra Point,D5,Alexandra Rd,68406,9914,6.9,https://www.99.co/singapore/commercial/rent/property/alexandra-point-office-ynnhrktsEpAdxysgGy6s7R#enquiry_source--Search,103.80223,1.28012
599,Winsland House I,D9,Killiney Rd,20958,1996,10.5,https://www.99.co/singapore/commercial/rent/property/winsland-house-i-office-oVC25oZNQfYnjG5LmcMuJN#enquiry_source--Search,103.84037,1.29971
600,Wisma Atria,D9,Orchard Rd,13450,1281,10.5,https://www.99.co/singapore/commercial/rent/property/wisma-atria-office-TQx2QtPWL7Z8eJbo5xEhDX#enquiry_source--Search,103.84812,1.29765
601,Ngee Ann City,D9,Orchard Rd,15487,1475,10.5,https://www.99.co/singapore/commercial/rent/property/ngee-ann-city-office-mJe4GutYx9CNtnhoGDyfrk#enquiry_source--Search,103.84812,1.29765
605,SGX Centre,D1,Shenton Way,14829,1561,9.5,https://www.99.co/singapore/commercial/rent/property/sgx-centre-office-dU6p9taCwNfh5srrQJ9LyM#enquiry_source--Search,103.85055,1.27929
609,International Business Park,D22,International Business Pk,28800,6700,4.3,https://www.99.co/singapore/commercial/rent/property/international-business-park-office-gTHW4Rd7Qb2cAUNcWAvP7A#enquiry_source--Search,103.74914,1.32891
610,Cosl (Singapore) Base,D22,Benoi Rd,30000,18000,1.67,https://www.99.co/singapore/commercial/rent/property/cosl-singapore-base-office-b75qMbmTGtk9Prfv4nQHC5#enquiry_source--Search,,
614,15 Scotts,D9,Scotts Rd,10157,1195,8.5,https://www.99.co/singapore/commercial/rent/property/15-scotts-office-t5z6vdax74b8A3RHYDx6o5#enquiry_source--Search,103.83273,1.30788
615,Haw Par Glass Tower,D9,Clemenceau Ave,19239,3630,5.3,https://www.99.co/singapore/commercial/rent/property/haw-par-glass-tower-office-fLzs7vpqiCvwjYQgWpYNhx#enquiry_source--Search,103.85091,1.28311
620,Boon Leat Terrace,D5,Boon Leat Terrace,3300,932,3.54,https://www.99.co/singapore/commercial/rent/property/boon-leat-terrace-office-cjhHdf6VMHPE7mmii5WdMH#enquiry_source--Search,103.7963,1.27532
625,Desker Road Conservation Area,D8,Maude Rd,7500,1328,5.65,https://www.99.co/singapore/commercial/rent/property/desker-road-conservation-area-office-kJ4PsSbVVsRsiTWqCeK7qW#enquiry_source--Search,103.85693,1.3079
626,Singapore Shopping Centre,D9,Clemenceau Ave,12800,1615,7.93,https://www.99.co/singapore/commercial/rent/property/singapore-shopping-centre-office-CrknGmHkHGmBMuR4fzkLGd#enquiry_source--Search,103.84301,1.29317
627,CT Hub 2,D12,Lavender St,42000,4725,8.89,https://www.99.co/singapore/commercial/rent/property/ct-hub-2-office-YDUM6Nfe2nMpW8gbXkLRpa#enquiry_source--Search,103.86293,1.31174
633,Chinatown Point,D1,New Bridge Rd,6000,1055,5.69,https://www.99.co/singapore/commercial/rent/property/chinatown-point-office-RMW3aLBHBC8CG4g9Jied4f#enquiry_source--Search,103.84717,1.28832
640,Vertex,D14,Ubi Ave 3,4900,1561,3.14,https://www.99.co/singapore/commercial/rent/property/vertex-office-CFQKehmrUBJvJwedU8brYC#enquiry_source--Search,103.89419,1.33303
646,Oriental Venture Building,D14,Geylang Rd,1050,300,3.5,https://www.99.co/singapore/commercial/rent/property/oriental-venture-building-office-X2qSw9TkQfmnL6zEzmeugV#enquiry_source--Search,103.87135,1.31164
647,Hoa Nam Building,D8,Foch Rd,1800,463,3.89,https://www.99.co/singapore/commercial/rent/property/hoa-nam-building-office-MUuSsRud7V528MiXgKPyFq#enquiry_source--Search,103.8598,1.31204
648,Parklane Shopping Mall,D7,Selegie Rd,2300,452,5.09,https://www.99.co/singapore/commercial/rent/property/parklane-shopping-mall-office-XsQrbmch3tDRVuGqtqmUe9#enquiry_source--Search,,
649,Changi Road,D14,Changi Rd,3500,818,4.28,https://www.99.co/singapore/commercial/rent/property/changi-road-office-pgMamymqChqBoRXxNZoyGm#enquiry_source--Search,103.91744,1.32068
657,High Street Centre,D6,Nth Bridge Rd,7300,1000,7.3,https://www.99.co/singapore/commercial/rent/property/high-street-centre-office-waKbDkVcBYrtCFd7HgmuuM#enquiry_source--Search,103.84922,1.28999
661,Phoenix Park,D10,Tanglin Rd,29926,7481,4.0,https://www.99.co/singapore/commercial/rent/property/phoenix-park-office-83q7LPPozsh34DEmLiQwzL#enquiry_source--Search,103.81659,1.29768
669,Haw Par Centre,D9,Clemenceau Ave,45800,6190,7.4,https://www.99.co/singapore/commercial/rent/property/haw-par-centre-office-jJ44YaLy5WXbLz6vw4T4Lz#enquiry_source--Search,103.84301,1.29317
670,Telok Blangah House,D4,,1000,180,5.56,https://www.99.co/singapore/commercial/rent/property/telok-blangah-house-office-CWCr6F9YVeG3TVPAqRkyvW#enquiry_source--Search,103.82017,1.27565
671,Kreta Ayer Conservation Area,D1,Trengganu St,3800,850,4.47,https://www.99.co/singapore/commercial/rent/property/kreta-ayer-conservation-area-office-Y4xY5iSWL672u2bRmY9dfS#enquiry_source--Search,103.84443,1.28313
674,Link@896,D21,Dunearn Rd,14000,2000,7.0,https://www.99.co/singapore/commercial/rent/property/link896-office-yqF7CbtdmvHFpYQx99rgrB#enquiry_source--Search,103.81756,1.32312
676,Sembawang Road,D26,Sembawang Rd,9500,1450,6.55,https://www.99.co/singapore/commercial/rent/property/sembawang-road-office-nuQDQBGYf6QDfMTevFiDy9#enquiry_source--Search,103.81781,1.39991
678,Tai Seng Avenue,D19,Tai Seng Ave,5681,2185,2.6,https://www.99.co/singapore/commercial/rent/property/tai-seng-avenue-office-2QTR7CGEr4D2t7PJyMxWFD#enquiry_source--Search,103.89123,1.33689
681,Kreta Ayer Conservation Area,D1,Temple St,3900,1130,3.45,https://www.99.co/singapore/commercial/rent/property/kreta-ayer-conservation-area-office-noYCEa7ueKKSByXGcu3iM4#enquiry_source--Search,103.84412,1.28289
690,Golden Mile Tower,D7,Beach Rd,3300,915,3.61,https://www.99.co/singapore/commercial/rent/property/golden-mile-tower-office-EPvzCF4puXuH5RyZpxWRbw#enquiry_source--Search,103.86454,1.30348
692,Ubi View,D14,Ubi View,2100,602,3.49,https://www.99.co/singapore/commercial/rent/property/ubi-view-office-mpkQAvPz3QXJM5JWSpScE7#enquiry_source--Search,103.89702,1.33165
693,Mountbatten Road,D14,Mountbatten Rd,1660,369,4.5,https://www.99.co/singapore/commercial/rent/property/mountbatten-road-office-9snPgEGMtew2nCfuKxhaxq#enquiry_source--Search,103.88345,1.30468
694,1557 Keppel Road,D2,Keppel Rd,8582,2113,4.06,https://www.99.co/singapore/commercial/rent/property/1557-keppel-road-office-gtq6zFfuw5PYwvwsNF7oZ9#enquiry_source--Search,103.84063,1.27287
702,Singapore Land Tower,D1,Raffles Pl,17146,1633,10.5,https://www.99.co/singapore/commercial/rent/property/singapore-land-tower-office-Fhynk7YxgtQAX7ZX5CUQ2B#enquiry_source--Search,103.8508,1.2849
704,Centropod @ Changi,D14,Changi Rd,2200,400,5.5,https://www.99.co/singapore/commercial/rent/property/centropod-changi-office-8mU2dSnyXuVzN5kpUv9JGj#enquiry_source--Search,103.91744,1.32068
705,Waterloo Street,D7,Waterloo St,2700,600,4.5,https://www.99.co/singapore/commercial/rent/property/waterloo-street-office-fZme86iHcttEaNBWMCwH3G#enquiry_source--Search,103.85129,1.29823
709,Isetan Office Building,D3,Havelock Rd,17000,4232,4.02,https://www.99.co/singapore/commercial/rent/property/isetan-office-building-office-VDVWiPGoSJBvLr7QUqfQdz#enquiry_source--Search,103.83997,1.29013
710,High Street Plaza,D6,High St,950,97,9.79,https://www.99.co/singapore/commercial/rent/property/high-street-plaza-office-6dnFdttUAc6UjTXwWPSK3K#enquiry_source--Search,,
716,Centro Bianco,D19,Upp Paya Lebar Rd,14400,4800,3.0,https://www.99.co/singapore/commercial/rent/property/centro-bianco-office-Y2aidvgLksoRrvCuuPqe5K#enquiry_source--Search,,
719,Novena Square,D11,Thomson Rd,32900,4015,8.19,https://www.99.co/singapore/commercial/rent/property/novena-square-office-TjLvCXQkb2ZaRn5vSGmBPZ#enquiry_source--Search,103.84263,1.32566
725,Tong Lee Building Block A,D13,Kallang Pudding Rd,500,200,2.5,https://www.99.co/singapore/commercial/rent/property/tong-lee-building-block-a-office-dEQuoBWP5bHBavRocNkHar#enquiry_source--Search,103.80707,1.31744
726,Kampong Glam Conservation Area,D7,Aliwal St,7500,1700,4.41,https://www.99.co/singapore/commercial/rent/property/kampong-glam-conservation-area-office-PoKdQRSKua52MzEQ3tRJnE#enquiry_source--Search,103.86125,1.30165
730,31 Hongkong Street,D1,,37050,5700,6.5,https://www.99.co/singapore/commercial/rent/property/31-hongkong-street-office-mMPZ9jkA5ieWMgR2TB27Mi#enquiry_source--Search,103.84704,1.28752
731,Tanjong Penjuru,D22,Tg Penjuru,15000,5000,3.0,https://www.99.co/singapore/commercial/rent/property/tanjong-penjuru-office-BDfSwveVzjoAgtsLMLBMPH#enquiry_source--Search,103.74046,1.3063
732,Bharat Building,D1,Raffles Pl,13000,2207,5.89,https://www.99.co/singapore/commercial/rent/property/bharat-building-office-VnL4mPp2QKh3e3ukYAgguV#enquiry_source--Search,103.8508,1.2849
742,Tanjong Pagar Road,D2,Tg Pagar Rd,19800,2800,7.07,https://www.99.co/singapore/commercial/rent/property/tanjong-pagar-road-office-UeFoQ32Rnvuq8E8rnkyHDn#enquiry_source--Search,103.84426,1.27993
743,Craig Road,D2,Craig Rd,19800,2800,7.07,https://www.99.co/singapore/commercial/rent/property/craig-road-office-nBhX3KoxwBy7JcKHBoN3kJ#enquiry_source--Search,103.84275,1.27754
744,WCEGA Plaza,D23,Bt Batok Cres,4300,2605,1.65,https://www.99.co/singapore/commercial/rent/property/wcega-plaza-office-oKdyyH72bWjuZvTVK4xFwZ#enquiry_source--Search,103.7543,1.34897
745,Central-Link,D3,Jln Kilang Barat,4500,2026,2.22,https://www.99.co/singapore/commercial/rent/property/centrallink-office-32VW6or787gGgrhRwUQLPx#enquiry_source--Search,103.81018,1.28521
746,Boat Quay Conservation Area,D1,Boat Quay,5000,1000,5.0,https://www.99.co/singapore/commercial/rent/property/boat-quay-conservation-area-office-HP6pj2jDWVLzskWgHJzwnT#enquiry_source--Search,103.84904,1.28895
749,Seng Kee Building,D9,Martin Rd,28750,5134,5.6,https://www.99.co/singapore/commercial/rent/property/seng-kee-building-office-jPwnVdJkdguXSuZbRiCAog#enquiry_source--Search,103.83895,1.29121
752,Prinsep Place,D7,Prinsep St,46176,7104,6.5,https://www.99.co/singapore/commercial/rent/property/prinsep-place-office-nBYgG95xtvcpQraTiSfEkd#enquiry_source--Search,103.84948,1.29897
753,Desker Road Conservation Area,D8,Rowell Rd,1800,130,13.85,https://www.99.co/singapore/commercial/rent/property/desker-road-conservation-area-office-hfEdQwKEj3V9duoNVEpH4H#enquiry_source--Search,,
755,Sims Avenue Centre,D14,Sims Ave,2800,818,3.42,https://www.99.co/singapore/commercial/rent/property/sims-avenue-centre-office-mW6pvB46mzwrogromBkEmA#enquiry_source--Search,103.87169,1.31044
756,Far East Square,D1,Amoy St,17280,2400,7.2,https://www.99.co/singapore/commercial/rent/property/far-east-square-office-5ugeWgURKRjtnrq9ASnJMp#enquiry_source--Search,103.84858,1.28322
757,Sultan Plaza,D7,Jln Sultan,4500,1302,3.46,https://www.99.co/singapore/commercial/rent/property/sultan-plaza-office-FPMdtv7ybjwZ6ttFd85gAF#enquiry_source--Search,103.86154,1.30243
763,Boat Quay Conservation Area,D1,Lor Telok,22000,3221,6.83,https://www.99.co/singapore/commercial/rent/property/boat-quay-conservation-area-office-NVh8uaja2CHRpdZSdGuosk#enquiry_source--Search,,
764,Anson Centre,D2,Anson Rd,12259,2990,4.1,https://www.99.co/singapore/commercial/rent/property/anson-centre-office-iMtvmVpRpRf92XAP6e8DEf#enquiry_source--Search,103.84653,1.27534
769,Orchard Building,D9,Grange Rd,12700,1588,8.0,https://www.99.co/singapore/commercial/rent/property/orchard-building-office-2evaUjvyNYMht2XCQWS9u3#enquiry_source--Search,103.83742,1.30147
773,St. Andrew's Centre,D2,Tg Pagar Rd,5071,818,6.2,https://www.99.co/singapore/commercial/rent/property/st-andrews-centre-office-dpNxyBMCwXY7gFCUfo4st8#enquiry_source--Search,103.84427,1.27996
776,Tanjong Pagar Complex,D2,Keppel Rd,24700,6500,3.8,https://www.99.co/singapore/commercial/rent/property/tanjong-pagar-complex-office-T33duUopH2uXzYWsu6o7qo#enquiry_source--Search,103.86732,1.29786
790,Delta House,D3,Alexandra Rd,11550,3300,3.5,https://www.99.co/singapore/commercial/rent/property/delta-house-office-BfpJ2XTY7sqMuYjd9ozt74#enquiry_source--Search,103.82524,1.29089
818,Geylang Road,D14,Geylang Rd,6500,1950,3.33,https://www.99.co/singapore/commercial/rent/property/geylang-road-office-3ZRYig8dFHFyehLccoGx2C#enquiry_source--Search,103.87046,1.30973
820,Kreta Ayer Conservation Area,D1,Upp Cross St,8000,2100,3.81,https://www.99.co/singapore/commercial/rent/property/kreta-ayer-conservation-area-office-C4FiBy7xsiqu5MT5rLXKgW#enquiry_source--Search,103.85085,1.28107
824,Upper Cross Street,D1,Upp Cross St,17268,2400,7.2,https://www.99.co/singapore/commercial/rent/property/upper-cross-street-office-DWKJswRwgcPFH8tmRe4Z9t#enquiry_source--Search,103.84481,1.28465
842,Singapore Business Federation Center,D1,Robinson Rd,4900,700,7.0,https://www.99.co/singapore/commercial/rent/property/singapore-business-federation-center-office-cJrNudBcLNLwn5g5pmkR8x#enquiry_source--Search,103.84864,1.27909
850,Springleaf Tower,D2,Anson Rd,13000,1300,10.0,https://www.99.co/singapore/commercial/rent/property/springleaf-tower-office-c79wzwBy9bbx8oN39krXDJ#enquiry_source--Search,103.85091,1.28311
851,Anson House,D2,Anson Rd,13000,1300,10.0,https://www.99.co/singapore/commercial/rent/property/anson-house-office-a52fnK4TbtgrbAYR7N3VdR#enquiry_source--Search,103.90125,1.31923
861,Kreta Ayer Conservation Area,D1,Sth Bridge Rd,48600,6068,8.01,https://www.99.co/singapore/commercial/rent/property/kreta-ayer-conservation-area-office-BJHTJqjnFnzhtsrRfGdYc5#enquiry_source--Search,103.84248,1.28005
862,Kensington Park Condominium,D19,Kensington Pk Dr,4000,1100,3.64,https://www.99.co/singapore/commercial/rent/property/kensington-park-condominium-office-NzopJm4zDBgGY6XBkWjZNq#enquiry_source--Search,103.77242,1.36376
864,Haite Building,D16,Changi Business Pk Cres,18760,5685,3.3,https://www.99.co/singapore/commercial/rent/property/haite-building-office-HbBV454EYrtqBxLMPQwucV#enquiry_source--Search,,
872,Westgate Tower,D22,Gateway Dr,91000,1400,65.0,https://www.99.co/singapore/commercial/rent/property/westgate-tower-office-NcHyBmDzD8xRTEioogYVBR#enquiry_source--Search,103.85091,1.28311
874,One Commonwealth,D3,C'Wealth Lane,4200,1227,3.42,https://www.99.co/singapore/commercial/rent/property/one-commonwealth-office-DaqCwX5NrsbHYqnJAmkFh6#enquiry_source--Search,103.76517,1.31523
876,Republic Plaza,D1,,39000,3724,10.47,https://www.99.co/singapore/commercial/rent/property/republic-plaza-office-jJeCvzEykZDwM8iwbDdu78#enquiry_source--Search,103.84465,1.42327
879,Yishun Avenue 5,D27,Yishun Ave 5,15950,1450,11.0,https://www.99.co/singapore/commercial/rent/property/yishun-avenue-5-office-BmP82xLpmBJGLddGY5FjDF#enquiry_source--Search,103.82824,1.42965
880,Noel Building,D13,Playfair Rd,780,90,8.67,https://www.99.co/singapore/commercial/rent/property/noel-building-office-DxiGyy3itVaLWz56Hu9geG#enquiry_source--Search,103.88662,1.33325
882,Link @ AMK,D20,Ang Mo Kio St 62,750,150,5.0,https://www.99.co/singapore/commercial/rent/property/link-amk-office-2CdQ8brH4soCJ7iYxBfeB3#enquiry_source--Search,103.84612,1.38792
883,LHK 2,D13,Playfair Rd,680,70,9.71,https://www.99.co/singapore/commercial/rent/property/lhk-2-office-dQ7rBJjzyLUsYdg2MCpSNF#enquiry_source--Search,103.88662,1.33325
885,Gsm Building,D7,Middle Rd,3688,1023,3.61,https://www.99.co/singapore/commercial/rent/property/gsm-building-office-MzUL7WyFsf3fXVkV2YbD9r#enquiry_source--Search,103.85559,1.29701
888,Queensway Shopping Centre/Queensway Tower,D3,Queensway,3500,452,7.74,https://www.99.co/singapore/commercial/rent/property/queensway-shopping-centrequeensway-tower-office-5XtbtYNciiVEA7wpTA9QH5#enquiry_source--Search,,
890,Telok Ayer Conservation Area,D1,Stanley St,24000,2600,9.23,https://www.99.co/singapore/commercial/rent/property/telok-ayer-conservation-area-office-7x3C8kuFrVYe7NayT5Ra5b#enquiry_source--Search,103.84914,1.283
891,Telok Ayer Conservation Area,D1,Amoy St,24000,2600,9.23,https://www.99.co/singapore/commercial/rent/property/telok-ayer-conservation-area-office-86sERn9SpTDFmz35N4prGf#enquiry_source--Search,103.84914,1.283
906,Furama City Centre Singapore,D1,Eu Tong Sen St,1850,230,8.04,https://www.99.co/singapore/commercial/rent/property/furama-city-centre-singapore-office-cbytKt7yKT5NuUt48u6S67#enquiry_source--Search,103.84796,1.2892
907,Lipo Building,D14,Aljunied Rd,750,180,4.17,https://www.99.co/singapore/commercial/rent/property/lipo-building-office-aMfv7u8Wuq9RzZg8ABENqS#enquiry_source--Search,103.88201,1.31353
908,Guthrie Building,D14,Changi Rd,4200,1250,3.36,https://www.99.co/singapore/commercial/rent/property/guthrie-building-office-a8qoM78rFxjMDeAA6CN6QA#enquiry_source--Search,103.89905,1.3163
915,Pandan Valley,D21,,1500,150,10.0,https://www.99.co/singapore/commercial/rent/property/pandan-valley-office-G2t5gfzFLmQsFprkstHUu6#enquiry_source--Search,103.90828,1.3921
920,Evershine And Century Complex,D7,Beach Rd,5300,1400,3.79,https://www.99.co/singapore/commercial/rent/property/evershine-and-century-complex-office-akFvbThKGjiUjyXYPNHoio#enquiry_source--Search,103.86454,1.30348
926,The Arcade,D1,Collyer Quay,16900,2600,6.5,https://www.99.co/singapore/commercial/rent/property/the-arcade-office-5dSdsJkYw2yXsw8Xn5Scuo#enquiry_source--Search,103.85273,1.28274
929,Golden Agri Plaza,D5,Pasir Panjang Rd,6615,1438,4.6,https://www.99.co/singapore/commercial/rent/property/golden-agri-plaza-office-arZhqqRaazMmD7CdBKFPFX#enquiry_source--Search,103.80232,1.27195
938,Oakwood Premier OUE Singapore / OUE Downtown,D1,Shenton Way,48913,5543,8.82,https://www.99.co/singapore/commercial/rent/property/oue-downtown-office-R9tef7CkjjvRaKNtEYhZUL#enquiry_source--Search,103.85055,1.27929
945,Cecil Court,D1,Cecil St,9185,1670,5.5,https://www.99.co/singapore/commercial/rent/property/cecil-court-office-dmZ4u8oe3X4JZCZGZvk2L2#enquiry_source--Search,103.84836,1.27945
954,Depot Road,D4,Depot Rd,152881,43680,3.5,https://www.99.co/singapore/commercial/rent/property/depot-road-office-DiT5gwMoUfwZoiqRbaCHHc#enquiry_source--Search,103.81618,1.27946
955,80 Bendemeer Road,D12,Bendemeer Rd,61118,13286,4.6,https://www.99.co/singapore/commercial/rent/property/80-bendemeer-road-office-jLmoN5QhRCyPHEVG24SpRu#enquiry_source--Search,103.86351,1.31713
960,Great World City,D9,Kim Seng Promenade,19200,2400,8.0,https://www.99.co/singapore/commercial/rent/property/great-world-city-office-veYE74NwLvCkFgndNWVoXX#enquiry_source--Search,,
962,Kreta Ayer Conservation Area,D1,Sago St,16000,2413,6.63,https://www.99.co/singapore/commercial/rent/property/kreta-ayer-conservation-area-office-esgTypxgpYW3rVjcgrotYU#enquiry_source--Search,103.84248,1.28005
966,Kovan City,D19,Hougang St 21,2800,600,4.67,https://www.99.co/singapore/commercial/rent/property/kovan-city-office-WwdtLzNDcyPc2NXRZzgkDf#enquiry_source--Search,103.88755,1.37874
968,Ubi Techpark,D14,Ubi Cres,800,130,6.15,https://www.99.co/singapore/commercial/rent/property/ubi-techpark-office-mRZBHKvjHethXeC8Psc4HG#enquiry_source--Search,103.80439,1.46689
976,Lorong 8 Toa Payoh,D12,Lor 8 Toa Payoh,24000,8000,3.0,https://www.99.co/singapore/commercial/rent/property/lorong-8-toa-payoh-office-P5xksvudbXjdEg5qLDzedn#enquiry_source--Search,103.85396,1.34065
984,Temasek Boulevard,D1,Temasek Boulevard,52428,6000,8.74,https://www.99.co/singapore/commercial/rent/property/temasek-boulevard-office-5BgpXqeU6KvvpMhJcEQSi2#enquiry_source--Search,,
990,CPF Tampines Building,D18,Tampines Ctrl 5,5720,1060,5.4,https://www.99.co/singapore/commercial/rent/property/cpf-tampines-building-office-Ls3Ss8YuWoZqTq9p63ppMN#enquiry_source--Search,103.94174,1.35368
995,Woodlands Industrial Xchange,D25,Woodlands Ave 10,1700,1000,1.7,https://www.99.co/singapore/commercial/rent/property/woodlands-industrial-xchange-office-URDwQnu8Y8sveDw26XSRyi#enquiry_source--Search,103.81198,1.45701
1003,Soho Life,D15,Joo Chiat Rd,3000,409,7.33,https://www.99.co/singapore/commercial/rent/property/soho-life-office-a6AjgkD2ps4dFep7vVSYwB#enquiry_source--Search,,
1005,MYP Plaza,D1,Cecil St,13788,2293,6.01,https://www.99.co/singapore/commercial/rent/property/myp-plaza-office-vp6V9zD9kTE9ANdntmBYYk#enquiry_source--Search,103.84836,1.27945
1010,RB Capital Building,D1,Malacca St,8000,1200,6.67,https://www.99.co/singapore/commercial/rent/property/rb-capital-building-office-J4CBaYTpdV8f9MkdTzn3sY#enquiry_source--Search,103.84608,1.31148
